NOAA 15                 
1 25338U 98030A   21270.17379925  .00000042  00000-0  36217-4 0  9995
2 25338  98.6758 297.7562 0010074 350.8865   9.2131 14.26059869215746
DMSP 5D-3 F15 (USA 147) 
1 25991U 99067A   21269.74316162  .00000078  00000-0  62189-4 0  9992
2 25991  99.0275 252.1799 0009491 212.5140 320.7421 14.16470559126430
METEOSAT-8 (MSG-1)      
1 27509U 02040B   21270.05882718  .00000137  00000-0  00000+0 0  9990
2 27509   7.5525  51.9669 0001530 174.5941 202.2156  1.00267117 69968
DMSP 5D-3 F16 (USA 172) 
1 28054U 03048A   21270.23088059 -.00000006  00000-0  20943-4 0  9990
2 28054  98.9639 255.0436 0007311 350.1223  72.0980 14.13636893925846
NOAA 18                 
1 28654U 05018A   21270.15698829  .00000090  00000-0  72887-4 0  9994
2 28654  98.9844 335.3805 0014049 359.4333   0.6821 14.12641214842898
METEOSAT-9 (MSG-2)      
1 28912U 05049B   21269.76408726  .00000017  00000-0  00000-0 0  9998
2 28912   5.4281  67.8600 0000693  50.4350 165.8551  1.00273061 57740
FORMOSAT-3 FM6          
1 29047U 06011A   21269.62261909  .00000159  00000-0  78518-4 0  9993
2 29047  71.9770 238.4324 0051383 335.5709  24.2993 14.28838561807878
FORMOSAT-3 FM1          
1 29048U 06011B   21269.37274196  .00000116  00000-0  62079-4 0  9996
2 29048  71.9661 149.3150 0045364 296.3456  63.3025 14.28804075810316
FORMOSAT-3 FM5          
1 29049U 06011C   21269.55848259  .00000114  00000-0  61222-4 0  9991
2 29049  72.0211 323.2367 0036539 317.0672  42.7614 14.28886127806136
FORMOSAT-3 FM3          
1 29050U 06011D   21269.71395948  .00000411  00000-0  96238-4 0  9998
2 29050  72.0158  61.2850 0050272 199.2892 160.6360 14.59120566824318
FORMOSAT-3 FM4          
1 29051U 06011E   21269.61743064  .00000107  00000-0  57300-4 0  9993
2 29051  72.0044 224.2608 0068901 200.3741 159.4646 14.28917635808727
FORMOSAT-3 FM2          
1 29052U 06011F   21269.51256450  .00000130  00000-0  67021-4 0  9998
2 29052  72.0332 300.0773 0042376 277.4134  82.2189 14.29027693806206
EWS-G1 (GOES 13)        
1 29155U 06018A   21269.84755498  .00000033  00000-0  00000-0 0  9993
2 29155   0.1295 118.6977 0007364  92.1343 161.8995  1.00275836 26089
METOP-A                 
1 29499U 06044A   21270.18572639  .00000012  00000-0  24480-4 0  9995
2 29499  98.4633 305.3495 0001208  66.7217  20.4064 14.21511209775198
DMSP 5D-3 F17 (USA 191) 
1 29522U 06050A   21270.21391642  .00000035  00000-0  41631-4 0  9998
2 29522  98.7821 285.0411 0008747 292.8563  67.1686 14.14044493768693
FENGYUN 3A              
1 32958U 08026A   21269.83603487  .00000019  00000-0  28837-4 0  9994
2 32958  98.4624 238.8260 0009854  68.3027 291.9198 14.18668937690954
FENGYUN 2E              
1 33463U 08066A   21269.92430692 -.00000202  00000-0  00000-0 0  9999
2 33463   5.3246  66.7071 0002827 330.8570  27.7069  1.00270067 46793
NOAA 19                 
1 33591U 09005A   21270.12995132  .00000059  00000-0  57373-4 0  9992
2 33591  99.1793 293.3339 0013553 203.7010 156.3538 14.12497147651275
GOES 14                 
1 35491U 09033A   21269.88593096 -.00000095  00000-0  00000-0 0  9990
2 35491   0.3644 280.6744 0015622 292.5712   7.3775  1.00272456 44820
METEOR-M 1              
1 35865U 09049A   21270.22315049  .00000027  00000-0  31035-4 0  9992
2 35865  98.4911 244.7407 0001152 280.2421  79.8627 14.22284607624273
DMSP 5D-3 F18 (USA 210) 
1 35951U 09057A   21270.21218398  .00000085  00000-0  67965-4 0  9990
2 35951  98.6908 251.5697 0012105 114.0468 246.1972 14.13398685615936
GOES 15                 
1 36411U 10008A   21269.66622851  .00000049  00000-0  00000-0 0  9993
2 36411   0.3946 275.7017 0001458 162.5542  39.5947  1.00282902 42389
COMS 1                  
1 36744U 10032A   21269.88594649 -.00000346  00000-0  00000-0 0  9997
2 36744   0.4682  95.9865 0000917 100.2835 256.7520  1.00273292 33799
FENGYUN 3B              
1 37214U 10059A   21270.14127959  .00000009  00000-0  28152-4 0  9993
2 37214  99.0859 266.2233 0017644  28.9677 331.2472 14.15999463563720
SUOMI NPP               
1 37849U 11061A   21270.01132941  .00000038  00000-0  38895-4 0  9991
2 37849  98.7421 207.3507 0001305  65.6111 356.9293 14.19544023513815
FENGYUN 2F              
1 38049U 12002A   21270.15710396 -.00000357  00000-0  00000+0 0  9998
2 38049   3.1513  81.5185 0002286  12.1471  80.8136  1.00285151 35604
METEOSAT-10 (MSG-3)     
1 38552U 12035B   21269.83708881  .00000060  00000-0  00000-0 0  9993
2 38552   1.2436  20.5073 0001793 198.1412  97.8128  1.00275913 33564
METOP-B                 
1 38771U 12049A   21270.16965451  .00000005  00000-0  22180-4 0  9993
2 38771  98.7047 328.9100 0002226  88.5681   4.3019 14.21493909468326
FENGYUN 3C              
1 39260U 13052A   21270.10853854  .00000025  00000-0  33553-4 0  9997
2 39260  98.4898 306.1213 0010406 318.8984  41.1407 14.15878997414652
METEOR-M 2              
1 40069U 14037A   21270.06357638 -.00000021  00000-0  94571-5 0  9999
2 40069  98.4550 294.6170 0006107  18.9980 341.1420 14.20688608374462
HIMAWARI-8              
1 40267U 14060A   21269.88564442 -.00000277  00000-0  00000-0 0  9998
2 40267   0.0103 226.8996 0001247 357.9414 240.5559  1.00273641 25476
FENGYUN 2G              
1 40367U 14090A   21270.22384233 -.00000304  00000-0  00000+0 0  9990
2 40367   1.2755  91.7740 0002347 263.8448 190.8855  1.00276316 24751
METEOSAT-11 (MSG-4)     
1 40732U 15034A   21269.83534444 -.00000001  00000-0  00000-0 0  9996
2 40732   0.3211 116.4457 0001494   7.0397 183.7700  1.00261490 22730
ELEKTRO-L 2             
1 41105U 15074A   21269.83229182 -.00000116  00000-0  00000-0 0  9992
2 41105   2.3263  91.2543 0002955  80.2209 119.5214  1.00270803 21226
HIMAWARI-9              
1 41836U 16064A   21269.88564442 -.00000276  00000-0  00000-0 0  9996
2 41836   0.0174 131.9284 0001013  73.8200 259.7622  1.00271582 17905
GOES 16                 
1 41866U 16071A   21269.89203622 -.00000250  00000-0  00000-0 0  9990
2 41866   0.1132  86.6754 0001077 143.4130  21.7708  1.00271918 17823
FENGYUN 4A              
1 41882U 16077A   21269.92788286 -.00000332  00000-0  00000-0 0  9993
2 41882   0.2399 284.6456 0003814 113.5270  46.5186  1.00275026 17694
CYGFM05                 
1 41884U 16078A   21269.69133708  .00001192  00000-0  63621-4 0  9999
2 41884  34.9573  42.7485 0016301 252.6748 107.2180 15.15161388264744
CYGFM04                 
1 41885U 16078B   21269.63556887  .00001173  00000-0  61782-4 0  9996
2 41885  34.9507  33.7656 0014752 265.8872  94.0153 15.15670815264769
CYGFM02                 
1 41886U 16078C   21269.62906300  .00001198  00000-0  63058-4 0  9990
2 41886  34.9598  35.8700 0015480 260.8891  99.0069 15.15670666264842
CYGFM01                 
1 41887U 16078D   21269.65540023  .00001154  00000-0  62006-4 0  9994
2 41887  34.9541  44.8802 0016748 252.1677 107.7207 15.14950140264699
CYGFM08                 
1 41888U 16078E   21269.65023952  .00001171  00000-0  62154-4 0  9995
2 41888  34.9512  38.7271 0015994 261.5443  98.3455 15.15371282264816
CYGFM06                 
1 41889U 16078F   21269.08299795  .00001209  00000-0  63656-4 0  9993
2 41889  34.9593  37.9674 0014410 256.2751 103.6357 15.15663171264709
CYGFM07                 
1 41890U 16078G   21269.65470599  .00001203  00000-0  63375-4 0  9993
2 41890  34.9533  33.2922 0014212 264.8904  95.0186 15.15659835264778
CYGFM03                 
1 41891U 16078H   21269.65240441  .00001200  00000-0  63245-4 0  9998
2 41891  34.9565  33.7002 0013711 263.2314  96.6838 15.15655640264769
FENGYUN 3D              
1 43010U 17072A   21270.11740918 -.00000014  00000-0  14378-4 0  9991
2 43010  98.7947 211.3526 0001567 134.3814 225.7494 14.19777490200416
NOAA 20                 
1 43013U 17073A   21269.96346762  .00000019  00000-0  29638-4 0  9994
2 43013  98.7254 207.0832 0001420  82.4146 277.7192 14.19554783199845
GOES 17                 
1 43226U 18022A   21269.73609023  .00000096  00000-0  00000-0 0  9995
2 43226   0.0553 294.7874 0000388 282.8585 275.9011  1.00272752 13128
FENGYUN 2H              
1 43491U 18050A   21269.85095649 -.00000125  00000-0  00000-0 0  9990
2 43491   0.4855 105.4376 0004245  48.4180 237.2017  1.00267831 12149
METOP-C                 
1 43689U 18087A   21270.18789747  .00000013  00000-0  25707-4 0  9996
2 43689  98.6755 328.8866 0003556  87.7952 272.3632 14.21507208149908
GEO-KOMPSAT-2A          
1 43823U 18100A   21270.00431587 -.00000345  00000-0  00000+0 0  9992
2 43823   0.0449 339.7694 0001697 252.5448 263.5324  1.00273747 10370
METEOR-M2 2             
1 44387U 19038A   21270.16691808 -.00000033  00000-0  46129-5 0  9992
2 44387  98.6811 228.6312 0001336  11.3560 348.7650 14.23691225115942
FENGYUN 3E              
1 49008U 21062A   21270.15711420 -.00000030  00000-0  63929-5 0  9993
2 49008  98.7057 271.3492 0002812  56.9434 303.2009 14.19812618 11955
